*******************************************************************************
JPL/HORIZONS                       1 Ceres                 2017-Jul-15 19:08:30
Rec #:     1 (+COV)   Soln.date: 2017-Apr-04_16:23:28   # obs: 5993 (1950-2017)
 
IAU76/J2000 helio. ecliptic osc. elements (au, days, deg., period=Julian yrs): 
 
  EPOCH=  2449731.5 ! 1995-Jan-14.00 (TDB)         Residual RMS= .3289         
   EC= .07610292126891821  QR= 2.556624726195814   TP= 2449823.0922807939      
   OM= 80.65851514365535   W=  71.44921526124109   IN= 10.60069567603618       
   A= 2.767218108003098    MA= 340.389084821267    ADIST= 2.977811489810382    
   PER= 4.60334            N= .214110998           ANGMOM= .028532632          
   DAN= 2.68615            DDN= 2.81946            L= 151.8082012              
   B= 10.0440306           MOID= 1.59241998        TP= 1995-Apr-15.5922807939  
 
Asteroid physical parameters (km, seconds, rotational period in hours):        
   GM= 62.6284             RAD= 469.7              ROTPER= 9.07417             
   H= 3.34                 G= .120                 B-V= .713                   
                           ALBEDO= .090            STYP= C                     
 
ASTEROID comments: 
1: soln ref.= JPL#34, OCC=0           radar(405 delay, 0 Dop.
2: source=ORB
*******************************************************************************
 
 
*******************************************************************************
Ephemeris / WWW_USER Sat Jul 15 19:08:30 2017 Pasadena, USA      / Horizons    
*******************************************************************************
Target body name: 1 Ceres                         {source: JPL#34}
Center body name: Sun (10)                        {source: DE431}
Center-site name: BODY CENTER
*******************************************************************************
Start time      : A.D. 2017-Jul-10 00:00:00.0000 TDB
Stop  time      : A.D. 2020-Aug-13 00:00:00.0000 TDB
Step-size       : 1440 minutes
*******************************************************************************
Center geodetic : 0.00000000,0.00000000,0.0000000 {E-lon(deg),Lat(deg),Alt(km)}
Center cylindric: 0.00000000,0.00000000,0.0000000 {E-lon(deg),Dxy(km),Dz(km)}
Center radii    : 696000.0 x 696000.0 x 696000.0 k{Equator, meridian, pole}    
Small perturbers: Yes                             {source: SB431-N16}
Output units    : KM-S                                                         
Output type     : GEOMETRIC cartesian states
Output format   : 3 (position, velocity, LT, range, range-rate)
Reference frame : ICRF/J2000.0                                                 
Coordinate systm: Ecliptic and Mean Equinox of Reference Epoch                 
*******************************************************************************
Initial IAU76/J2000 heliocentric ecliptic osculating elements (au, days, deg.):
  EPOCH=  2449731.5 ! 1995-Jan-14.00 (TDB)         Residual RMS= .3289         
   EC= .07610292126891821  QR= 2.556624726195814   TP= 2449823.0922807939      
   OM= 80.65851514365535   W=  71.44921526124109   IN= 10.60069567603618       
  Equivalent ICRF heliocentric equatorial cartesian coordinates (au, au/d):
   X=-1.595314070299652E+00  Y= 1.679592434318194E+00  Z= 1.115015709161572E+00
  VX=-8.276811304306792E-03 VY=-7.202858709771250E-03 VZ=-1.698003095770422E-03
Asteroid physical parameters (km, seconds, rotational period in hours):        
   GM= 62.6284             RAD= 469.7              ROTPER= 9.07417             
   H= 3.34                 G= .120                 B-V= .713                   
                           ALBEDO= .090            STYP= C                     
*******************************************************************************
            JDTDB,            Calendar Date (TDB),                      X,                      Y,                      Z,                     VX,                     VY,                     VZ,                     LT,                     RG,                     RR,
**************************************************************************************************************************************************************************************************************************************************************************
$$SOE
2458364.500000000, A.D. 2018-Sep-03 00:00:00.0000, -3.788960282874115E+08, -3.550922439928792E+07,  6.873513112293735E+07,  9.230843991099208E-01, -1.908733294736015E+01, -7.711066020543811E-01,  1.289938648510477E+03,  3.867138781061539E+08,  7.111750531421267E-01,
2458365.500000000, A.D. 2018-Sep-04 00:00:00.0000, -3.788130290211667E+08, -3.715806160287933E+07,  6.866791895142634E+07,  9.981861906616801E-01, -1.908014104045202E+01, -7.847273981956882E-01,  1.290144318586582E+03,  3.867755364438066E+08,  7.160988694616324E-01,
2458366.500000000, A.D. 2018-Sep-05 00:00:00.0000, -3.787235432422361E+08, -3.880626346824688E+07,  6.859953080310556E+07,  1.073234906881356E+00, -1.907262611887033E+01, -7.983282437967594E-01,  1.290351405613980E+03,  3.868376195727700E+08,  7.210081710553424E-01,
2458367.500000000, A.D. 2018-Sep-06 00:00:00.0000, -3.786275756008072E+08, -4.045380210645005E+07,  6.852996841300821E+07,  1.148229055461738E+00, -1.906478863613570E+01, -8.119088772757603E-01,  1.290559905397328E+03,  3.869001262353125E+08,  7.259028737015347E-01,
2458368.500000000, A.D. 2018-Sep-07 00:00:00.0000, -3.785251308759315E+08, -4.210064966812746E+07,  6.845923353873038E+07,  1.223167145811930E+00, -1.905662905498170E+01, -8.254690379375855E-01,  1.290769813717426E+03,  3.869630551665493E+08,  7.307828960022336E-01,
2458369.500000000, A.D. 2018-Sep-08 00:00:00.0000, -3.784162139753569E+08, -4.374677834431286E+07,  6.838732796035068E+07,  1.298047689520659E+00, -1.904814784783142E+01, -8.390084660623751E-01,  1.290981126331982E+03,  3.870264050946732E+08,  7.356481590478289E-01,
2458370.500000000, A.D. 2018-Sep-09 00:00:00.0000, -3.783008299353156E+08, -4.539216036728704E+07,  6.831425348034242E+07,  1.372869200936968E+00, -1.903934549707016E+01, -8.525269029878890E-01,  1.291193838976265E+03,  3.870901747411507E+08,  7.404985859593468E-01,
2458371.500000000, A.D. 2018-Sep-10 00:00:00.0000, -3.781789839202588E+08, -4.703676801144388E+07,  6.824001192347902E+07,  1.447630197767499E+00, -1.903022249516027E+01, -8.660240911802779E-01,  1.291407947363625E+03,  3.871543628208758E+08,  7.453341014068939E-01,
2458372.500000000, A.D. 2018-Sep-11 00:00:00.0000, -3.780506812225426E+08, -4.868057359415983E+07,  6.816460513673405E+07,  1.522329201647922E+00, -1.902077934458877E+01, -8.794997742890631E-01,  1.291623447185868E+03,  3.872189680422846E+08,  7.501546311403375E-01,
2458373.500000000, A.D. 2018-Sep-12 00:00:00.0000, -3.779159272620647E+08, -5.032354947665349E+07,  6.808803498917714E+07,  1.596964738656289E+00, -1.901101655769392E+01, -8.929536971866243E-01,  1.291840334113504E+03,  3.872839891074285E+08,  7.549601015641632E-01,
2458374.500000000, A.D. 2018-Sep-13 00:00:00.0000, -3.777747275858627E+08, -5.196566806482565E+07,  6.801030337186727E+07,  1.671535339729263E+00, -1.900093465639702E+01, -9.063856059912130E-01,  1.292058603795884E+03,  3.873494247120161E+08,  7.597504393942097E-01,
2458375.500000000, A.D. 2018-Sep-14 00:00:00.0000, -3.776270878676796E+08, -5.360690181007370E+07,  6.793141219774461E+07,  1.746039540977912E+00, -1.899053417188334E+01, -9.197952480764107E-01,  1.292278251861253E+03,  3.874152735454282E+08,  7.645255714017525E-01,
2458376.500000000, A.D. 2018-Sep-15 00:00:00.0000, -3.774730139075065E+08, -5.524722321007748E+07,  6.785136340152189E+07,  1.820475883910804E+00, -1.897981564426651E+01, -9.331823720708590E-01,  1.292499273916739E+03,  3.874815342907144E+08,  7.692854242397328E-01,
2458377.500000000, A.D. 2018-Sep-16 00:00:00.0000, -3.773125116311098E+08, -5.688660480955654E+07,  6.777015893957651E+07,  1.894842915574122E+00, -1.896877962225983E+01, -9.465467278508406E-01,  1.292721665548299E+03,  3.875482056245784E+08,  7.740299243438566E-01,
2458378.500000000, A.D. 2018-Sep-17 00:00:00.0000, -3.771455870895488E+08, -5.852501920099969E+07,  6.768780078984298E+07,  1.969139188624163E+00, -1.895742666287191E+01, -9.598880665286700E-01,  1.292945422320653E+03,  3.876152862173566E+08,  7.787589978957022E-01,
2458379.500000000, A.D. 2018-Sep-18 00:00:00.0000, -3.769722464586903E+08, -6.016243902536970E+07,  6.760429095170683E+07,  2.043363261348556E+00, -1.894575733113557E+01, -9.732061404390819E-01,  1.293170539777212E+03,  3.876827747329972E+08,  7.834725708335432E-01,
2458380.500000000, A.D. 2018-Sep-19 00:00:00.0000, -3.767924960387220E+08, -6.179883697278633E+07,  6.751963144589952E+07,  2.117513697652325E+00, -1.893377219987512E+01, -9.865007031255031E-01,  1.293397013440013E+03,  3.877506698290404E+08,  7.881705688966154E-01,
2458381.500000000, A.D. 2018-Sep-20 00:00:00.0000, -3.766063422536688E+08, -6.343418578319080E+07,  6.743382431439462E+07,  2.191589067023896E+00, -1.892147184951118E+01, -9.997715093275641E-01,  1.293624838809666E+03,  3.878189701566036E+08,  7.928529176889192E-01,
2458382.500000000, A.D. 2018-Sep-21 00:00:00.0000, -3.764137916509124E+08, -6.506845824699496E+07,  6.734687162030493E+07,  2.265587944491594E+00, -1.890885686790031E+01, -1.013018314970545E+00,  1.293854011365335E+03,  3.878876743603736E+08,  7.975195427528680E-01,
2458383.500000000, A.D. 2018-Sep-22 00:00:00.0000, -3.762148509007138E+08, -6.670162720571779E+07,  6.725877544778037E+07,  2.339508910577001E+00, -1.889592785020389E+01, -1.026240877156919E+00,  1.294084526564721E+03,  3.879567810786040E+08,  8.021703696467628E-01,
2458384.500000000, A.D. 2018-Sep-23 00:00:00.0000, -3.760095267957419E+08, -6.833366555261201E+07,  6.716953790190662E+07,  2.413350551243342E+00, -1.888268539878020E+01, -1.039438954159303E+00,  1.294316379844085E+03,  3.880262889431199E+08,  8.068053240278122E-01,
